{
 "type": "FeatureCollection",
 "features": [
  {
   "type": "Feature",
   "properties": {
    "kind": "leg",
    "day": 1,
    "from": "Shimla",
    "to": "Sarahan",
    "name": "Day 1: Shimla to Sarahan"
   },
   "geometry": {
    "type": "LineString",
    "coordinates": [
     [
      77.1748,
      31.1044
     ],
     [
      77.265,
      31.0975
     ],
     [
      77.29,
      31.0908
     ],
     [
      77.358,
      31.122
     ],
     [
      77.413,
      31.183
     ],
     [
      77.463,
      31.253
     ],
     [
      77.5,
      31.31
     ],
     [
      77.534,
      31.363
     ],
     [
      77.57,
      31.39
     ],
     [
      77.63,
      31.45
     ],
     [
      77.708,
      31.476
     ],
     [
      77.742,
      31.508
     ],
     [
      77.7954,
      31.5103
     ]
    ]
   }
  },
  {
   "type": "Feature",
   "properties": {
    "kind": "leg",
    "day": 2,
    "from": "Sarahan",
    "to": "Chitkul",
    "name": "Day 2: Sarahan to Chitkul"
   },
   "geometry": {
    "type": "LineString",
    "coordinates": [
     [
      77.7954,
      31.5103
     ],
     [
      77.742,
      31.508
     ],
     [
      77.855,
      31.535
     ],
     [
      77.915,
      31.562
     ],
     [
      77.98,
      31.558
     ],
     [
      78.09,
      31.53
     ],
     [
      78.175,
      31.475
     ],
     [
      78.265,
      31.42
     ],
     [
      78.355,
      31.38
     ],
     [
      78.4366,
      31.3508
     ]
    ]
   }
  },
  {
   "type": "Feature",
   "properties": {
    "kind": "leg",
    "day": 3,
    "from": "Chitkul",
    "to": "Kalpa",
    "name": "Day 3: Chitkul to Kalpa"
   },
   "geometry": {
    "type": "LineString",
    "coordinates": [
     [
      78.4366,
      31.3508
     ],
     [
      78.355,
      31.38
     ],
     [
      78.265,
      31.42
     ],
     [
      78.175,
      31.475
     ],
     [
      78.21,
      31.5
     ],
     [
      78.245,
      31.523
     ],
     [
      78.2754,
      31.5377
     ]
    ]
   }
  },
  {
   "type": "Feature",
   "properties": {
    "kind": "leg",
    "day": 4,
    "from": "Kalpa",
    "to": "Tabo",
    "name": "Day 4: Kalpa to Tabo"
   },
   "geometry": {
    "type": "LineString",
    "coordinates": [
     [
      78.2754,
      31.5377
     ],
     [
      78.245,
      31.523
     ],
     [
      78.33,
      31.56
     ],
     [
      78.38,
      31.6
     ],
     [
      78.43,
      31.638
     ],
     [
      78.483,
      31.662
     ],
     [
      78.54,
      31.71
     ],
     [
      78.592,
      31.764
     ],
     [
      78.71,
      31.79
     ],
     [
      78.6297,
      31.8797
     ],
     [
      78.636,
      31.934
     ],
     [
      78.555,
      31.99
     ],
     [
      78.48,
      32.03
     ],
     [
      78.3829,
      32.0935
     ]
    ]
   }
  },
  {
   "type": "Feature",
   "properties": {
    "kind": "leg",
    "day": 5,
    "from": "Tabo",
    "to": "Mudh",
    "name": "Day 5: Tabo to Mudh"
   },
   "geometry": {
    "type": "LineString",
    "coordinates": [
     [
      78.3829,
      32.0935
     ],
     [
      78.24,
      32.08
     ],
     [
      78.145,
      32.06
     ],
     [
      78.1,
      32.025
     ],
     [
      78.07,
      32.0
     ],
     [
      78.05,
      31.98
     ],
     [
      78.0363,
      31.9559
     ]
    ]
   }
  },
  {
   "type": "Feature",
   "properties": {
    "kind": "leg",
    "day": 6,
    "from": "Mudh",
    "to": "Kaza",
    "name": "Day 6: Mudh to Kaza"
   },
   "geometry": {
    "type": "LineString",
    "coordinates": [
     [
      78.0363,
      31.9559
     ],
     [
      78.05,
      31.98
     ],
     [
      78.1,
      32.025
     ],
     [
      78.145,
      32.06
     ],
     [
      78.11,
      32.12
     ],
     [
      78.1,
      32.18
     ],
     [
      78.071,
      32.2276
     ]
    ]
   }
  },
  {
   "type": "Feature",
   "properties": {
    "kind": "leg",
    "day": 7,
    "from": "Kaza",
    "to": "Losar",
    "name": "Day 7: Kaza to Losar"
   },
   "geometry": {
    "type": "LineString",
    "coordinates": [
     [
      78.071,
      32.2276
     ],
     [
      78.04,
      32.26
     ],
     [
      78.012,
      32.298
     ],
     [
      78.0103,
      32.3327
     ],
     [
      77.9971,
      32.3432
     ],
     [
      77.93,
      32.37
     ],
     [
      77.87,
      32.39
     ],
     [
      77.81,
      32.42
     ],
     [
      77.7552,
      32.4383
     ]
    ]
   }
  },
  {
   "type": "Feature",
   "properties": {
    "kind": "leg",
    "day": 8,
    "from": "Losar",
    "to": "Chandratal",
    "name": "Day 8: Losar to Chandratal"
   },
   "geometry": {
    "type": "LineString",
    "coordinates": [
     [
      77.7552,
      32.4383
     ],
     [
      77.7,
      32.43
     ],
     [
      77.66,
      32.415
     ],
     [
      77.6356,
      32.3989
     ],
     [
      77.615,
      32.415
     ],
     [
      77.605,
      32.445
     ],
     [
      77.61,
      32.47
     ],
     [
      77.6157,
      32.4824
     ]
    ]
   }
  },
  {
   "type": "Feature",
   "properties": {
    "kind": "leg",
    "day": 9,
    "from": "Chandratal",
    "to": "Manali",
    "name": "Day 9: Chandratal to Manali"
   },
   "geometry": {
    "type": "LineString",
    "coordinates": [
     [
      77.6157,
      32.4824
     ],
     [
      77.61,
      32.47
     ],
     [
      77.605,
      32.445
     ],
     [
      77.615,
      32.415
     ],
     [
      77.6356,
      32.3989
     ],
     [
      77.6,
      32.38
     ],
     [
      77.5644,
      32.3617
     ],
     [
      77.5,
      32.39
     ],
     [
      77.41,
      32.42
     ],
     [
      77.33,
      32.445
     ],
     [
      77.26,
      32.43
     ],
     [
      77.21,
      32.415
     ],
     [
      77.147,
      32.453
     ],
     [
      77.2,
      32.366
     ],
     [
      77.173,
      32.317
     ],
     [
      77.1892,
      32.2432
     ]
    ]
   }
  },
  {
   "type": "Feature",
   "properties": {
    "kind": "spur",
    "day": 6,
    "name": "Langza, Hikkim and Komic"
   },
   "geometry": {
    "type": "LineString",
    "coordinates": [
     [
      78.071,
      32.2276
     ],
     [
      78.08,
      32.25
     ],
     [
      78.0816,
      32.2738
     ],
     [
      78.068,
      32.29
     ],
     [
      78.1087,
      32.2331
     ],
     [
      78.071,
      32.2276
     ]
    ]
   }
  },
  {
   "type": "Feature",
   "properties": {
    "kind": "end",
    "name": "Shimla",
    "stop": null,
    "date": "16 Sep",
    "ele": 2205,
    "night_temp": null,
    "note": "Set off. Draw cash and download offline maps here — ATMs get unreliable past Reckong Peo."
   },
   "geometry": {
    "type": "Point",
    "coordinates": [
     77.1748,
     31.1044
    ]
   }
  },
  {
   "type": "Feature",
   "properties": {
    "kind": "night",
    "name": "Sarahan",
    "stop": 1,
    "date": "16 Sep",
    "ele": 2165,
    "night_temp": "8 to 12 °C",
    "note": "Mild enough that you will privately conclude you have over-packed."
   },
   "geometry": {
    "type": "Point",
    "coordinates": [
     77.7954,
     31.5103
    ]
   }
  },
  {
   "type": "Feature",
   "properties": {
    "kind": "night",
    "name": "Chitkul",
    "stop": 2,
    "date": "17 Sep",
    "ele": 3450,
    "night_temp": "0 to 4 °C",
    "note": "The first real jolt. Windy, damp, and a preview of what is coming."
   },
   "geometry": {
    "type": "Point",
    "coordinates": [
     78.4366,
     31.3508
    ]
   }
  },
  {
   "type": "Feature",
   "properties": {
    "kind": "night",
    "name": "Kalpa",
    "stop": 3,
    "date": "18 Sep",
    "ele": 2960,
    "night_temp": "5 to 9 °C",
    "note": "Kinnaur Kailash across the valley. Last mild night of the trip."
   },
   "geometry": {
    "type": "Point",
    "coordinates": [
     78.2754,
     31.5377
    ]
   }
  },
  {
   "type": "Feature",
   "properties": {
    "kind": "night",
    "name": "Tabo",
    "stop": 4,
    "date": "19 Sep",
    "ele": 3280,
    "night_temp": "0 to 4 °C",
    "note": "Cold desert from here. Air turns very dry and nights start biting."
   },
   "geometry": {
    "type": "Point",
    "coordinates": [
     78.3829,
     32.0935
    ]
   }
  },
  {
   "type": "Feature",
   "properties": {
    "kind": "night",
    "name": "Mudh",
    "stop": 5,
    "date": "20 Sep",
    "ele": 3800,
    "night_temp": "−1 to −4 °C",
    "note": "Up a dead-end side valley. First sub-zero night."
   },
   "geometry": {
    "type": "Point",
    "coordinates": [
     78.0363,
     31.9559
    ]
   }
  },
  {
   "type": "Feature",
   "properties": {
    "kind": "night",
    "name": "Kaza",
    "stop": 6,
    "date": "21 Sep",
    "ele": 3650,
    "night_temp": "−2 to −6 °C",
    "note": "A poor first night's sleep here is normal and usually passes."
   },
   "geometry": {
    "type": "Point",
    "coordinates": [
     78.071,
     32.2276
    ]
   }
  },
  {
   "type": "Feature",
   "properties": {
    "kind": "night",
    "name": "Losar",
    "stop": 7,
    "date": "22 Sep",
    "ele": 4085,
    "night_temp": "−4 to −8 °C",
    "note": "Described everywhere as the coldest place in Spiti. Homestays have essentially no heating."
   },
   "geometry": {
    "type": "Point",
    "coordinates": [
     77.7552,
     32.4383
    ]
   }
  },
  {
   "type": "Feature",
   "properties": {
    "kind": "night",
    "name": "Chandratal",
    "stop": 8,
    "date": "23 Sep",
    "ele": 4337,
    "night_temp": "−5 to −10 °C",
    "note": "No network, no charging, no hot shower. Twelve hours between sunset and sunrise."
   },
   "geometry": {
    "type": "Point",
    "coordinates": [
     77.6157,
     32.4824
    ]
   }
  },
  {
   "type": "Feature",
   "properties": {
    "kind": "end",
    "name": "Manali",
    "stop": null,
    "date": "24 Sep",
    "ele": 2050,
    "night_temp": null,
    "note": "A 3,000 m drop in one day. You will be peeling layers off from Koksar onwards."
   },
   "geometry": {
    "type": "Point",
    "coordinates": [
     77.1892,
     32.2432
    ]
   }
  },
  {
   "type": "Feature",
   "properties": {
    "kind": "highpoint",
    "name": "Langza",
    "day": 6,
    "ele": 4400
   },
   "geometry": {
    "type": "Point",
    "coordinates": [
     78.0816,
     32.2738
    ]
   }
  },
  {
   "type": "Feature",
   "properties": {
    "kind": "highpoint",
    "name": "Hikkim",
    "day": 6,
    "ele": 4400
   },
   "geometry": {
    "type": "Point",
    "coordinates": [
     78.068,
     32.29
    ]
   }
  },
  {
   "type": "Feature",
   "properties": {
    "kind": "highpoint",
    "name": "Komic",
    "day": 6,
    "ele": 4587
   },
   "geometry": {
    "type": "Point",
    "coordinates": [
     78.1087,
     32.2331
    ]
   }
  },
  {
   "type": "Feature",
   "properties": {
    "kind": "highpoint",
    "name": "Kibber",
    "day": 7,
    "ele": 4270
   },
   "geometry": {
    "type": "Point",
    "coordinates": [
     78.0103,
     32.3327
    ]
   }
  },
  {
   "type": "Feature",
   "properties": {
    "kind": "highpoint",
    "name": "Chicham",
    "day": 7,
    "ele": 4145
   },
   "geometry": {
    "type": "Point",
    "coordinates": [
     77.9971,
     32.3432
    ]
   }
  },
  {
   "type": "Feature",
   "properties": {
    "kind": "highpoint",
    "name": "Kunzum La",
    "day": 8,
    "ele": 4590
   },
   "geometry": {
    "type": "Point",
    "coordinates": [
     77.6356,
     32.3989
    ]
   }
  }
 ]
}